[{"OBJECT_NAME":"STARLINK-5666","OBJECT_ID":"2023-013U","EPOCH":"2026-03-07T23:40:22.757664","MEAN_MOTION":15.02537813,"ECCENTRICITY":0.00011448,"INCLINATION":43.004,"RA_OF_ASC_NODE":309.5501,"ARG_OF_PERICENTER":273.5114,"MEAN_ANOMALY":86.5598,"EPHEMERIS_TYPE":0,"CLASSIFICATION_TYPE":"U","NORAD_CAT_ID":55349,"ELEMENT_SET_NO":999,"REV_AT_EPOCH":17145,"BSTAR":4.2868148e-5,"MEAN_MOTION_DOT":3.76e-6,"MEAN_MOTION_DDOT":0},{"OBJECT_NAME":"KORSAT-1","OBJECT_ID":"2024-066L","EPOCH":"2026-03-09T23:36:29.126880","MEAN_MOTION":14.99775855,"ECCENTRICITY":0.00103896,"INCLINATION":45.4118,"RA_OF_ASC_NODE":38.4763,"ARG_OF_PERICENTER":214.4294,"MEAN_ANOMALY":145.5913,"EPHEMERIS_TYPE":0,"CLASSIFICATION_TYPE":"U","NORAD_CAT_ID":59452,"ELEMENT_SET_NO":999,"REV_AT_EPOCH":10517,"BSTAR":0.00047970888,"MEAN_MOTION_DOT":5.797e-5,"MEAN_MOTION_DDOT":0}]
